CCSDS_OMM_VERS = 2.0
CREATION_DATE  = 
ORIGINATOR     = 

OBJECT_NAME    = COSMOS 2242
OBJECT_ID      = 1993-024A
CENTER_NAME    = EARTH
REF_FRAME      = TEME
TIME_SYSTEM    = UTC
MEAN_ELEMENT_THEORY = SGP/SGP4

EPOCH          = 2026-03-22T22:35:23.256960
MEAN_MOTION    = 14.96602023
ECCENTRICITY   = .00149174
INCLINATION    = 82.5153
RA_OF_ASC_NODE = 254.0374
ARG_OF_PERICENTER = 260.1161
MEAN_ANOMALY   = 99.8378

EPHEMERIS_TYPE = 0
CLASSIFICATION_TYPE = U
NORAD_CAT_ID   = 22626
ELEMENT_SET_NO = 999
REV_AT_EPOCH   = 78237
BSTAR          = .17916724E-3
MEAN_MOTION_DOT = .207E-4
MEAN_MOTION_DDOT = 0

CCSDS_OMM_VERS = 2.0
CREATION_DATE  = 
ORIGINATOR     = 

OBJECT_NAME    = SL-16 R/B
OBJECT_ID      = 1993-059B
CENTER_NAME    = EARTH
REF_FRAME      = TEME
TIME_SYSTEM    = UTC
MEAN_ELEMENT_THEORY = SGP/SGP4

EPOCH          = 2026-03-22T22:59:23.823168
MEAN_MOTION    = 14.17235057
ECCENTRICITY   = .00177551
INCLINATION    = 70.9930
RA_OF_ASC_NODE = 343.1485
ARG_OF_PERICENTER = 197.3464
MEAN_ANOMALY   = 162.7056

EPHEMERIS_TYPE = 0
CLASSIFICATION_TYPE = U
NORAD_CAT_ID   = 22803
ELEMENT_SET_NO = 999
REV_AT_EPOCH   = 68141
BSTAR          = .76705527E-4
MEAN_MOTION_DOT = .107E-5
MEAN_MOTION_DDOT = 0

CCSDS_OMM_VERS = 2.0
CREATION_DATE  = 
ORIGINATOR     = 

OBJECT_NAME    = ARIANE 40 R/B
OBJECT_ID      = 1993-061H
CENTER_NAME    = EARTH
REF_FRAME      = TEME
TIME_SYSTEM    = UTC
MEAN_ELEMENT_THEORY = SGP/SGP4

EPOCH          = 2026-03-22T21:30:58.621248
MEAN_MOTION    = 14.32867514
ECCENTRICITY   = .00097257
INCLINATION    = 98.4892
RA_OF_ASC_NODE = 150.5221
ARG_OF_PERICENTER = 241.3953
MEAN_ANOMALY   = 118.6254

EPHEMERIS_TYPE = 0
CLASSIFICATION_TYPE = U
NORAD_CAT_ID   = 22830
ELEMENT_SET_NO = 999
REV_AT_EPOCH   = 69599
BSTAR          = .90013042E-4
MEAN_MOTION_DOT = .203E-5
MEAN_MOTION_DDOT = 0

CCSDS_OMM_VERS = 2.0
CREATION_DATE  = 
ORIGINATOR     = 

OBJECT_NAME    = COSMOS 2278
OBJECT_ID      = 1994-023A
CENTER_NAME    = EARTH
REF_FRAME      = TEME
TIME_SYSTEM    = UTC
MEAN_ELEMENT_THEORY = SGP/SGP4

EPOCH          = 2026-03-22T21:26:59.519616
MEAN_MOTION    = 14.14377639
ECCENTRICITY   = .00089032
INCLINATION    = 71.0535
RA_OF_ASC_NODE = 147.4753
ARG_OF_PERICENTER = 351.4864
MEAN_ANOMALY   = 8.6106

EPHEMERIS_TYPE = 0
CLASSIFICATION_TYPE = U
NORAD_CAT_ID   = 23087
ELEMENT_SET_NO = 999
REV_AT_EPOCH   = 64667
BSTAR          = -.94793725E-4
MEAN_MOTION_DOT = -.229E-5
MEAN_MOTION_DDOT = 0

CCSDS_OMM_VERS = 2.0
CREATION_DATE  = 
ORIGINATOR     = 

OBJECT_NAME    = SL-16 R/B
OBJECT_ID      = 1994-023B
CENTER_NAME    = EARTH
REF_FRAME      = TEME
TIME_SYSTEM    = UTC
MEAN_ELEMENT_THEORY = SGP/SGP4

EPOCH          = 2026-03-22T22:25:23.656512
MEAN_MOTION    = 14.15011270
ECCENTRICITY   = .00054744
INCLINATION    = 71.0001
RA_OF_ASC_NODE = 43.0698
ARG_OF_PERICENTER = 272.8683
MEAN_ANOMALY   = 87.1813

EPHEMERIS_TYPE = 0
CLASSIFICATION_TYPE = U
NORAD_CAT_ID   = 23088
ELEMENT_SET_NO = 999
REV_AT_EPOCH   = 64796
BSTAR          = .12588883E-3
MEAN_MOTION_DOT = .196E-5
MEAN_MOTION_DDOT = 0

CCSDS_OMM_VERS = 2.0
CREATION_DATE  = 
ORIGINATOR     = 

OBJECT_NAME    = SL-16 R/B
OBJECT_ID      = 1994-074B
CENTER_NAME    = EARTH
REF_FRAME      = TEME
TIME_SYSTEM    = UTC
MEAN_ELEMENT_THEORY = SGP/SGP4

EPOCH          = 2026-03-22T20:49:57.351360
MEAN_MOTION    = 14.79422359
ECCENTRICITY   = .0006838
INCLINATION    = 97.7091
RA_OF_ASC_NODE = 112.1512
ARG_OF_PERICENTER = 166.0282
MEAN_ANOMALY   = 6.5593

EPHEMERIS_TYPE = 0
CLASSIFICATION_TYPE = U
NORAD_CAT_ID   = 23343
ELEMENT_SET_NO = 999
REV_AT_EPOCH   = 68919
BSTAR          = .69087861E-4
MEAN_MOTION_DOT = .466E-5
MEAN_MOTION_DDOT = 0

CCSDS_OMM_VERS = 2.0
CREATION_DATE  = 
ORIGINATOR     = 

OBJECT_NAME    = SL-16 R/B
OBJECT_ID      = 1994-077B
CENTER_NAME    = EARTH
REF_FRAME      = TEME
TIME_SYSTEM    = UTC
MEAN_ELEMENT_THEORY = SGP/SGP4

EPOCH          = 2026-03-22T21:51:28.814688
MEAN_MOTION    = 14.15567899
ECCENTRICITY   = .00023261
INCLINATION    = 70.9845
RA_OF_ASC_NODE = 324.6764
ARG_OF_PERICENTER = 198.8781
MEAN_ANOMALY   = 161.2256

EPHEMERIS_TYPE = 0
CLASSIFICATION_TYPE = U
NORAD_CAT_ID   = 23405
ELEMENT_SET_NO = 999
REV_AT_EPOCH   = 61810
BSTAR          = .13212253E-3
MEAN_MOTION_DOT = .211E-5
MEAN_MOTION_DDOT = 0

CCSDS_OMM_VERS = 2.0
CREATION_DATE  = 
ORIGINATOR     = 

OBJECT_NAME    = ARIANE 40+ R/B
OBJECT_ID      = 1995-021B
CENTER_NAME    = EARTH
REF_FRAME      = TEME
TIME_SYSTEM    = UTC
MEAN_ELEMENT_THEORY = SGP/SGP4

EPOCH          = 2026-03-22T23:21:06.130368
MEAN_MOTION    = 14.39781561
ECCENTRICITY   = .00079826
INCLINATION    = 98.4474
RA_OF_ASC_NODE = 153.2742
ARG_OF_PERICENTER = 102.0597
MEAN_ANOMALY   = 70.6892

EPHEMERIS_TYPE = 0
CLASSIFICATION_TYPE = U
NORAD_CAT_ID   = 23561
ELEMENT_SET_NO = 999
REV_AT_EPOCH   = 62115
BSTAR          = .10754146E-3
MEAN_MOTION_DOT = .294E-5
MEAN_MOTION_DDOT = 0

CCSDS_OMM_VERS = 2.0
CREATION_DATE  = 
ORIGINATOR     = 

OBJECT_NAME    = SL-16 R/B
OBJECT_ID      = 1995-058B
CENTER_NAME    = EARTH
REF_FRAME      = TEME
TIME_SYSTEM    = UTC
MEAN_ELEMENT_THEORY = SGP/SGP4

EPOCH          = 2026-03-22T11:51:53.043552
MEAN_MOTION    = 14.15500823
ECCENTRICITY   = .00101758
INCLINATION    = 71.0219
RA_OF_ASC_NODE = 153.3742
ARG_OF_PERICENTER = 102.1338
MEAN_ANOMALY   = 258.0926

EPHEMERIS_TYPE = 0
CLASSIFICATION_TYPE = U
NORAD_CAT_ID   = 23705
ELEMENT_SET_NO = 999
REV_AT_EPOCH   = 56966
BSTAR          = -.16662904E-4
MEAN_MOTION_DOT = -.8E-6
MEAN_MOTION_DDOT = 0

CCSDS_OMM_VERS = 2.0
CREATION_DATE  = 
ORIGINATOR     = 

OBJECT_NAME    = SL-16 R/B
OBJECT_ID      = 1996-051B
CENTER_NAME    = EARTH
REF_FRAME      = TEME
TIME_SYSTEM    = UTC
MEAN_ELEMENT_THEORY = SGP/SGP4

EPOCH          = 2026-03-22T21:55:52.819392
MEAN_MOTION    = 14.12419264
ECCENTRICITY   = .00139682
INCLINATION    = 70.7595
RA_OF_ASC_NODE = 147.2504
ARG_OF_PERICENTER = 127.0751
MEAN_ANOMALY   = 233.1648

EPHEMERIS_TYPE = 0
CLASSIFICATION_TYPE = U
NORAD_CAT_ID   = 24298
ELEMENT_SET_NO = 999
REV_AT_EPOCH   = 52351
BSTAR          = .79503118E-4
MEAN_MOTION_DOT = .98E-6
MEAN_MOTION_DDOT = 0

CCSDS_OMM_VERS = 2.0
CREATION_DATE  = 
ORIGINATOR     = 

OBJECT_NAME    = ORBVIEW 2 (SEASTAR)
OBJECT_ID      = 1997-037A
CENTER_NAME    = EARTH
REF_FRAME      = TEME
TIME_SYSTEM    = UTC
MEAN_ELEMENT_THEORY = SGP/SGP4

EPOCH          = 2026-03-22T22:33:39.793824
MEAN_MOTION    = 14.35503861
ECCENTRICITY   = .00026702
INCLINATION    = 98.8590
RA_OF_ASC_NODE = 246.6045
ARG_OF_PERICENTER = 43.9827
MEAN_ANOMALY   = 316.1570

EPHEMERIS_TYPE = 0
CLASSIFICATION_TYPE = U
NORAD_CAT_ID   = 24883
ELEMENT_SET_NO = 999
REV_AT_EPOCH   = 51037
BSTAR          = .11064378E-3
MEAN_MOTION_DOT = .272E-5
MEAN_MOTION_DDOT = 0

CCSDS_OMM_VERS = 2.0
CREATION_DATE  = 
ORIGINATOR     = 

OBJECT_NAME    = SL-16 R/B
OBJECT_ID      = 1998-043G
CENTER_NAME    = EARTH
REF_FRAME      = TEME
TIME_SYSTEM    = UTC
MEAN_ELEMENT_THEORY = SGP/SGP4

EPOCH          = 2026-03-22T20:27:03.734784
MEAN_MOTION    = 14.26052668
ECCENTRICITY   = .00095212
INCLINATION    = 98.8277
RA_OF_ASC_NODE = 35.3105
ARG_OF_PERICENTER = 342.5723
MEAN_ANOMALY   = 17.5128

EPHEMERIS_TYPE = 0
CLASSIFICATION_TYPE = U
NORAD_CAT_ID   = 25400
ELEMENT_SET_NO = 999
REV_AT_EPOCH   = 44086
BSTAR          = .49909443E-4
MEAN_MOTION_DOT = .74E-6
MEAN_MOTION_DDOT = 0

