COSMOS 2242             
1 22626U 93024A   26081.94124140  .00002070  00000+0  17917-3 0  9994
2 22626  82.5153 254.0374 0014917 260.1161  99.8378 14.96602023782372
SL-16 R/B               
1 22803U 93059B   26081.95791462  .00000107  00000+0  76706-4 0  9998
2 22803  70.9930 343.1485 0017755 197.3464 162.7056 14.17235057681414
ARIANE 40 R/B           
1 22830U 93061H   26081.89651182  .00000203  00000+0  90013-4 0  9992
2 22830  98.4892 150.5221 0009725 241.3953 118.6254 14.32867514695999
COSMOS 2278             
1 23087U 94023A   26081.89374444 -.00000229  00000+0 -94794-4 0  9999
2 23087  71.0535 147.4753 0008903 351.4864   8.6106 14.14377639646670
SL-16 R/B               
1 23088U 94023B   26081.93430158  .00000196  00000+0  12589-3 0  9992
2 23088  71.0001  43.0698 0005474 272.8683  87.1813 14.15011270647960
SL-16 R/B               
1 23343U 94074B   26081.86802490  .00000466  00000+0  69088-4 0  9993
2 23343  97.7091 112.1512 0006838 166.0282   6.5593 14.79422359689190
SL-16 R/B               
1 23405U 94077B   26081.91075017  .00000211  00000+0  13212-3 0  9993
2 23405  70.9845 324.6764 0002326 198.8781 161.2256 14.15567899618100
ARIANE 40+ R/B          
1 23561U 95021B   26081.97298762  .00000294  00000+0  10754-3 0  9995
2 23561  98.4474 153.2742 0007982 102.0597  70.6892 14.39781561621151
SL-16 R/B               
1 23705U 95058B   26081.49436393 -.00000080  00000+0 -16663-4 0  9997
2 23705  71.0219 153.3742 0010175 102.1338 258.0926 14.15500823569669
SL-16 R/B               
1 24298U 96051B   26081.91380578  .00000098  00000+0  79503-4 0  9998
2 24298  70.7595 147.2504 0013968 127.0751 233.1648 14.12419264523510
ORBVIEW 2 (SEASTAR)     
1 24883U 97037A   26081.94004391  .00000272  00000+0  11064-3 0  9993
2 24883  98.8590 246.6045 0002670  43.9827 316.1570 14.35503861510376
SL-16 R/B               
1 25400U 98043G   26081.85212656  .00000074  00000+0  49909-4 0  9992
2 25400  98.8277  35.3105 0009521 342.5723  17.5128 14.26052668440860
